NORAD_CAT_ID,OBJECT_NAME,OBJECT_TYPE,EPOCH,MEAN_MOTION,ECCENTRICITY,INCLINATION,RA_OF_ASC_NODE,ARG_OF_PERICENTER,MEAN_ANOMALY,BSTAR,MEAN_MOTION_DOT,MEAN_MOTION_DDOT,TLE_LINE0,TLE_LINE1,TLE_LINE2,SEMIMAJOR_AXIS,PERIOD,APOGEE,PERIGEE,DECAYED
49739.0,STARLINK-3155,PAYLOAD,2023-05-13 07:14:17,15.08785852,0.0001545,53.218,109.1974,98.3598,261.7569,0.00089605,0.0001398,0.0,0 STARLINK-3155,1 49739U 21115R   23133.30158677  .00013980  00000-0  89605-3 0  9993,2 49739  53.2180 109.1974 0001545  98.3598 261.7569 15.08785852 80790,6918.046,95.441,540.98,538.842,0.0
49739.0,STARLINK-3155,PAYLOAD,2023-05-13 15:11:11,15.0883469,0.0001133,53.2175,107.711,99.4023,260.7098,2.8688e-05,1.69e-06,0.0,0 STARLINK-3155,1 49739U 21115R   23133.63277560  .00000169  00000-0  28688-4 0  9992,2 49739  53.2175 107.7110 0001133  99.4023 260.7098 15.08834690 79731,6917.897,95.438,540.545,538.978,0.0
49739.0,STARLINK-3155,PAYLOAD,2023-05-14 05:29:40,15.08834802,0.0001231,53.218,105.0348,100.3474,259.7657,7.3271e-05,8.78e-06,0.0,0 STARLINK-3155,1 49739U 21115R   23134.22893786  .00000878  00000-0  73271-4 0  9997,2 49739  53.2180 105.0348 0001231 100.3474 259.7657 15.08834802 80930,6917.896,95.438,540.613,538.91,0.0
49739.0,STARLINK-3155,PAYLOAD,2023-05-14 07:05:03,15.0883695,0.0001249,53.218,104.7376,101.0429,259.0703,9.1105e-05,1.162e-05,0.0,0 STARLINK-3155,1 49739U 21115R   23134.29517621  .00001162  00000-0  91105-4 0  9998,2 49739  53.2180 104.7376 0001249 101.0429 259.0703 15.08836950 79832,6917.89,95.438,540.619,538.891,0.0
49739.0,STARLINK-3155,PAYLOAD,2023-05-15 05:20:26,15.08844794,0.0001261,53.2181,100.5747,97.1605,262.9531,0.00012188,1.653e-05,0.0,0 STARLINK-3155,1 49739U 21115R   23135.22253148  .00001653  00000-0  12188-3 0  9991,2 49739  53.2181 100.5747 0001261  97.1605 262.9531 15.08844794 81081,6917.866,95.437,540.603,538.858,0.0
49739.0,STARLINK-3155,PAYLOAD,2023-05-15 14:52:46,15.08829849,0.0001332,53.2185,98.7878,87.0373,273.0771,0.00021997,3.214e-05,0.0,0 STARLINK-3155,1 49739U 21115R   23135.61998026  .00003214  00000-0  21997-3 0  9998,2 49739  53.2185  98.7878 0001332  87.0373 273.0771 15.08829849 81147,6917.911,95.438,540.698,538.855,0.0
49739.0,STARLINK-3155,PAYLOAD,2023-05-16 06:46:37,15.08839562,0.0001338,53.2187,95.8126,87.9648,272.1497,6.4519e-05,7.39e-06,0.0,0 STARLINK-3155,1 49739U 21115R   23136.28237824  .00000739  00000-0  64519-4 0  9991,2 49739  53.2187  95.8126 0001338  87.9648 272.1497 15.08839562 80139,6917.882,95.438,540.672,538.821,0.0
49739.0,STARLINK-3155,PAYLOAD,2023-05-17 03:26:37,15.088315,0.000132,53.2184,91.9452,103.3053,256.8087,0.00029374,4.389e-05,0.0,0 STARLINK-3155,1 49739U 21115R   23137.14349284  .00004389  00000-0  29374-3 0  9995,2 49739  53.2184  91.9452 0001320 103.3053 256.8087 15.08831500 81374,6917.906,95.438,540.685,538.858,0.0
49739.0,STARLINK-3155,PAYLOAD,2023-05-18 06:28:11,15.08838481,0.000118,53.2175,86.8939,87.8178,272.2949,1.9349e-05,2e-07,0.0,0 STARLINK-3155,1 49739U 21115R   23138.26957744  .00000020  00000-0  19349-4 0  9995,2 49739  53.2175  86.8939 0001180  87.8178 272.2949 15.08838481 81548,6917.885,95.438,540.566,538.934,0.0
49739.0,STARLINK-3155,PAYLOAD,2023-05-19 03:08:11,15.08847528,0.0001264,53.2178,83.0284,81.0845,279.029,-1.9787e-05,-6.03e-06,0.0,0 STARLINK-3155,1 49739U 21115R   23139.13069415 -.00000603  00000-0 -19787-4 0  9996,2 49739  53.2178  83.0284 0001264  81.0845 279.0290 15.08847528 81673,6917.857,95.437,540.597,538.848,0.0
49739.0,STARLINK-3155,PAYLOAD,2023-05-20 02:58:59,15.0884071,0.0001183,53.2181,78.5696,83.6995,276.4132,5.5661e-05,5.98e-06,0.0,0 STARLINK-3155,1 49739U 21115R   23140.12429722  .00000598  00000-0  55661-4 0  9990,2 49739  53.2181  78.5696 0001183  83.6995 276.4132 15.08840710 81826,6917.878,95.438,540.562,538.925,0.0
49739.0,STARLINK-3155,PAYLOAD,2023-05-21 02:49:45,15.08854495,0.0001328,53.2192,74.1112,100.7129,259.4013,0.00011704,1.576e-05,0.0,0 STARLINK-3155,1 49739U 21115R   23141.11788459  .00001576  00000-0  11704-3 0  9991,2 49739  53.2192  74.1112 0001328 100.7129 259.4013 15.08854495 81974,6917.836,95.437,540.62,538.782,0.0
49739.0,STARLINK-3155,PAYLOAD,2023-05-22 04:15:57,15.08831548,0.0001006,53.2175,69.3487,96.5955,263.5151,-9.8051e-05,-1.847e-05,0.0,0 STARLINK-3155,1 49739U 21115R   23142.17774935 -.00001847  00000-0 -98051-4 0  9996,2 49739  53.2175  69.3487 0001006  96.5955 263.5151 15.08831548 82130,6917.906,95.438,540.467,539.075,0.0
49739.0,STARLINK-3155,PAYLOAD,2023-05-22 12:12:53,15.08832914,0.0001117,53.2187,67.8643,87.7218,272.3902,-5.3823e-05,-1.144e-05,0.0,0 STARLINK-3155,1 49739U 21115R   23142.50895003 -.00001144  00000-0 -53823-4 0  9991,2 49739  53.2187  67.8643 0001117  87.7218 272.3902 15.08832914 81079,6917.902,95.438,540.54,538.994,0.0
49739.0,STARLINK-3155,PAYLOAD,2023-05-22 18:34:25,15.08840951,0.0001043,53.2176,66.6761,97.5566,262.5545,-4.7566e-05,-1.045e-05,0.0,0 STARLINK-3155,1 49739U 21115R   23142.77390395 -.00001045  00000-0 -47566-4 0  9991,2 49739  53.2176  66.6761 0001043  97.5566 262.5545 15.08840951 82220,6917.877,95.437,540.464,539.021,0.0
49739.0,STARLINK-3155,PAYLOAD,2023-05-23 02:31:20,15.08853611,0.000108,53.2181,65.1889,83.5037,276.6078,2.3412e-05,8.5e-07,0.0,0 STARLINK-3155,1 49739U 21115R   23143.10509669  .00000085  00000-0  23412-4 0  9990,2 49739  53.2181  65.1889 0001080  83.5037 276.6078 15.08853611 82279,6917.839,95.437,540.451,538.957,0.0
49739.0,STARLINK-3155,PAYLOAD,2023-05-23 04:06:44,15.08837999,0.0001227,53.2177,64.888,93.6943,266.4189,0.00047356,7.256e-05,0.0,0 STARLINK-3155,1 49739U 21115R   23143.17134546  .00007256  00000-0  47356-3 0  9994,2 49739  53.2177  64.8880 0001227  93.6943 266.4189 15.08837999 82284,6917.887,95.438,540.6,538.903,0.0
49739.0,STARLINK-3155,PAYLOAD,2023-05-24 03:57:31,15.08847644,0.0001235,53.218,60.4267,99.6859,260.4273,0.00040661,6.191e-05,0.0,0 STARLINK-3155,1 49739U 21115R   23144.16494227  .00006191  00000-0  40661-3 0  9998,2 49739  53.2180  60.4267 0001235  99.6859 260.4273 15.08847644 81320,6917.857,95.437,540.576,538.868,0.0
49739.0,STARLINK-3155,PAYLOAD,2023-05-25 21:17:32,15.08848937,0.0001089,53.2189,52.7011,76.9223,283.1891,-1.3919e-05,-5.09e-06,0.0,0 STARLINK-3155,1 49739U 21115R   23145.88718224 -.00000509  00000-0 -13919-4 0  9990,2 49739  53.2189  52.7011 0001089  76.9223 283.1891 15.08848937 81582,6917.853,95.437,540.471,538.965,0.0
49739.0,STARLINK-3155,PAYLOAD,2023-05-26 00:28:18,15.08851335,0.0001233,53.2186,52.1019,90.4747,269.6387,4.5092e-05,4.3e-06,0.0,0 STARLINK-3155,1 49739U 21115R   23146.01965976  .00000430  00000-0  45092-4 0  9992,2 49739  53.2186  52.1019 0001233  90.4747 269.6387 15.08851335 82715,6917.846,95.437,540.564,538.858,0.0
49739.0,STARLINK-3155,PAYLOAD,2023-05-26 21:08:20,15.08837367,0.0001182,53.2177,48.2396,84.6768,275.4359,2.8982e-05,1.73e-06,0.0,0 STARLINK-3155,1 49739U 21115R   23146.88078731  .00000173  00000-0  28982-4 0  9994,2 49739  53.2177  48.2396 0001182  84.6768 275.4359 15.08837367 81734,6917.888,95.438,540.571,538.936,0.0
49739.0,STARLINK-3155,PAYLOAD,2023-05-27 03:29:52,15.08841039,0.0001185,53.2182,47.0485,82.4654,277.6473,8.0814e-05,9.99e-06,0.0,0 STARLINK-3155,1 49739U 21115R   23147.14574525  .00000999  00000-0  80814-4 0  9994,2 49739  53.2182  47.0485 0001185  82.4654 277.6473 15.08841039 82888,6917.877,95.437,540.562,538.922,0.0
49739.0,STARLINK-3155,PAYLOAD,2023-05-27 20:59:07,15.08833277,0.0001174,53.2182,43.7786,91.286,268.8266,-9.0535e-05,-1.728e-05,0.0,0 STARLINK-3155,1 49739U 21115R   23147.87439045 -.00001728  00000-0 -90535-4 0  9995,2 49739  53.2182  43.7786 0001174  91.2860 268.8266 15.08833277 82999,6917.901,95.438,540.578,538.954,0.0
49739.0,STARLINK-3155,PAYLOAD,2023-05-27 22:34:30,15.0883463,0.0001126,53.2189,43.4814,89.2612,270.8509,-1.8309e-05,-5.79e-06,0.0,0 STARLINK-3155,1 49739U 21115R   23147.94063440 -.00000579  00000-0 -18309-4 0  9997,2 49739  53.2189  43.4814 0001126  89.2612 270.8509 15.08834630 81899,6917.897,95.438,540.541,538.983,0.0
49739.0,STARLINK-3155,PAYLOAD,2023-05-28 00:09:53,15.08837084,0.0001175,53.2195,43.1873,99.6625,260.45,-1.4255e-05,-5.15e-06,0.0,0 STARLINK-3155,1 49739U 21115R   23148.00687282 -.00000515  00000-0 -14255-4 0  9997,2 49739  53.2195  43.1873 0001175  99.6625 260.4500 15.08837084 81905,6917.889,95.438,540.567,538.941,0.0
49739.0,STARLINK-3155,PAYLOAD,2023-05-28 16:03:44,15.08841664,0.0001139,53.219,40.211,97.3857,262.7264,9.0315e-05,1.15e-05,0.0,0 STARLINK-3155,1 49739U 21115R   23148.66926928  .00001150  00000-0  90315-4 0  9997,2 49739  53.2190  40.2110 0001139  97.3857 262.7264 15.08841664 83110,6917.875,95.437,540.528,538.952,0.0
49739.0,STARLINK-3155,PAYLOAD,2023-05-28 20:49:54,15.08843374,0.0001255,53.22,39.3211,103.4638,256.6494,0.00012467,1.697e-05,0.0,0 STARLINK-3155,1 49739U 21115R   23148.86798722  .00001697  00000-0  12467-3 0  9995,2 49739  53.2200  39.3211 0001255 103.4638 256.6494 15.08843374 82035,6917.87,95.437,540.603,538.867,0.0
49739.0,STARLINK-3155,PAYLOAD,2023-05-29 03:11:25,15.08853095,0.0001141,53.2186,38.1294,97.2573,262.8548,0.00019074,2.75e-05,0.0,0 STARLINK-3155,1 49739U 21115R   23149.13293937  .00002750  00000-0  19074-3 0  9996,2 49739  53.2186  38.1294 0001141  97.2573 262.8548 15.08853095 83185,6917.84,95.437,540.495,538.916,0.0
49739.0,STARLINK-3155,PAYLOAD,2023-05-29 20:40:41,15.08834135,0.0001401,53.2176,34.8533,110.4488,249.6655,5.9664e-05,6.62e-06,0.0,0 STARLINK-3155,1 49739U 21115R   23149.86159153  .00000662  00000-0  59664-4 0  9997,2 49739  53.2176  34.8533 0001401 110.4488 249.6655 15.08834135 82180,6917.898,95.438,540.733,538.794,0.0
49739.0,STARLINK-3155,PAYLOAD,2023-05-30 01:26:51,15.08834761,0.0001097,53.2182,33.9661,82.6663,277.4454,1.2988e-06,-2.67e-06,0.0,0 STARLINK-3155,1 49739U 21115R   23150.06031446 -.00000267  00000-0  12988-5 0  9996,2 49739  53.2182  33.9661 0001097  82.6663 277.4454 15.08834761 83323,6917.896,95.438,540.52,539.003,0.0
